CTC1_L_00090016-03
1 10062U 24618AC  26075.70030093  .00000000  00000+0  00000-0 0  9991
2 10062  80.0000 180.0000 0000000   0.0000   0.0000 14.79785908    17
CTC1_L_00090016-04
1 10063U 22079FJ  26075.70030093  .00000000  00000+0  00000-0 0  9991
2 10063  80.0000 180.0000 0000000   0.0000  90.0000 14.79785908    17
CTC1_L_00090017-01
1 10064U 23777VX  26075.70030093  .00000000  00000+0  00000-0 0  9998
2 10064  80.0000 192.0000 0000000   0.0000 192.0000 14.79785908    14
CTC1_L_00090017-02
1 10065U 25195DK  26075.70030093  .00000000  00000+0  00000-0 0  9995
2 10065  80.0000 192.0000 0000000   0.0000 282.0000 14.79785908    15
CTC1_L_00090017-03
1 10066U 26267TE  26075.70030093  .00000000  00000+0  00000-0 0  9997
2 10066  80.0000 192.0000 0000000   0.0000  12.0000 14.79785908    17
CTC1_L_00090017-04
1 10067U 25289PE  26075.70030093  .00000000  00000+0  00000-0 0  9991
2 10067  80.0000 192.0000 0000000   0.0000 102.0000 14.79785908    18
CTC1_L_00090018-01
1 10068U 22946ZM  26075.70030093  .00000000  00000+0  00000-0 0  9999
2 10068  80.0000 204.0000 0000000   0.0000 204.0000 14.79785908    16
CTC1_L_00090018-02
1 10069U 22686JD  26075.70030093  .00000000  00000+0  00000-0 0  9991
2 10069  80.0000 204.0000 0000000   0.0000 294.0000 14.79785908    16
CTC1_L_00090018-03
1 10070U 26904UP  26075.70030093  .00000000  00000+0  00000-0 0  9990
2 10070  80.0000 204.0000 0000000   0.0000  24.0000 14.79785908    19
CTC1_L_00090018-04
1 10071U 26760HB  26075.70030093  .00000000  00000+0  00000-0 0  9991
2 10071  80.0000 204.0000 0000000   0.0000 114.0000 14.79785908    10
CTC1_L_00090019-01
1 10072U 24210DS  26075.70030093  .00000000  00000+0  00000-0 0  9990
2 10072  80.0000 216.0000 0000000   0.0000 216.0000 14.79785908    17
CTC1_L_00090019-02
1 10073U 23961UN  26075.70030093  .00000000  00000+0  00000-0 0  9993
2 10073  80.0000 216.0000 0000000   0.0000 306.0000 14.79785908    18
CTC1_L_00090019-03
1 10074U 25062KG  26075.70030093  .00000000  00000+0  00000-0 0  9998
2 10074  80.0000 216.0000 0000000   0.0000  36.0000 14.79785908    19
CTC1_L_00090019-04
1 10075U 26304OY  26075.70030093  .00000000  00000+0  00000-0 0  9999
2 10075  80.0000 216.0000 0000000   0.0000 126.0000 14.79785908    10
CTC1_L_00090020-01
1 10076U 22124HT  26075.70030093  .00000000  00000+0  00000-0 0  9996
2 10076  80.0000 228.0000 0000000   0.0000 228.0000 14.79785908    17
CTC1_L_00090020-02
1 10077U 25552OV  26075.70030093  .00000000  00000+0  00000-0 0  9995
2 10077  80.0000 228.0000 0000000   0.0000 318.0000 14.79785908    18
CTC1_L_00090020-03
1 10078U 24397TC  26075.70030093  .00000000  00000+0  00000-0 0  9992
2 10078  80.0000 228.0000 0000000   0.0000  48.0000 14.79785908    19
CTC1_L_00090020-04
1 10079U 26086LI  26075.70030093  .00000000  00000+0  00000-0 0  9990
2 10079  80.0000 228.0000 0000000   0.0000 138.0000 14.79785908    10
CTC1_L_00090021-01
1 10080U 23972OK  26075.70030093  .00000000  00000+0  00000-0 0  9993
2 10080  80.0000 240.0000 0000000   0.0000 240.0000 14.79785908    10
CTC1_L_00090021-02
1 10081U 24818YT  26075.70030093  .00000000  00000+0  00000-0 0  9994
2 10081  80.0000 240.0000 0000000   0.0000 330.0000 14.79785908    11
CTC1_L_00090021-03
1 10082U 26543OU  26075.70030093  .00000000  00000+0  00000-0 0  9992
2 10082  80.0000 240.0000 0000000   0.0000  60.0000 14.79785908    12
CTC1_L_00090021-04
1 10083U 24911EL  26075.70030093  .00000000  00000+0  00000-0 0  9990
2 10083  80.0000 240.0000 0000000   0.0000 150.0000 14.79785908    13
CTC1_L_00090022-01
1 10084U 25077UT  26075.70030093  .00000000  00000+0  00000-0 0  9995
2 10084  80.0000 252.0000 0000000   0.0000 252.0000 14.79785908    10
CTC1_L_00090022-02
1 10085U 26480YU  26075.70030093  .00000000  00000+0  00000-0 0  9995
2 10085  80.0000 252.0000 0000000   0.0000 342.0000 14.79785908    11
CTC1_L_00090022-03
1 10086U 22126BQ  26075.70030093  .00000000  00000+0  00000-0 0  9999
2 10086  80.0000 252.0000 0000000   0.0000  72.0000 14.79785908    12
CTC1_L_00090022-04
1 10087U 26141LB  26075.70030093  .00000000  00000+0  00000-0 0  9991
2 10087  80.0000 252.0000 0000000   0.0000 162.0000 14.79785908    13
CTC1_L_00090023-01
1 10088U 22323GS  26075.70030093  .00000000  00000+0  00000-0 0  9990
2 10088  80.0000 264.0000 0000000   0.0000 264.0000 14.79785908    10
CTC1_L_00090023-02
1 10089U 23066AG  26075.70030093  .00000000  00000+0  00000-0 0  9996
2 10089  80.0000 264.0000 0000000   0.0000 354.0000 14.79785908    11
CTC1_L_00090023-03
1 10090U 23140YU  26075.70030093  .00000000  00000+0  00000-0 0  9991
2 10090  80.0000 264.0000 0000000   0.0000  84.0000 14.79785908    13
CTC1_L_00090023-04
1 10091U 25093SP  26075.70030093  .00000000  00000+0  00000-0 0  9991
2 10091  80.0000 264.0000 0000000   0.0000 174.0000 14.79785908    14
CTC1_L_00090024-01
1 10092U 23708MA  26075.70030093  .00000000  00000+0  00000-0 0  9993
2 10092  80.0000 276.0000 0000000   0.0000 276.0000 14.79785908    11
CTC1_L_00090024-02
1 10093U 22408ZL  26075.70030093  .00000000  00000+0  00000-0 0  9990
2 10093  80.0000 276.0000 0000000   0.0000   6.0000 14.79785908    13
CTC1_L_00090024-03
1 10094U 26603LU  26075.70030093  .00000000  00000+0  00000-0 0  9992
2 10094  80.0000 276.0000 0000000   0.0000  96.0000 14.79785908    13
CTC1_L_00090024-04
1 10095U 25092G   26075.70030093  .00000000  00000+0  00000-0 0  9994
2 10095  80.0000 276.0000 0000000   0.0000 186.0000 14.79785908    14
CTC1_L_00090025-01
1 10096U 22032JN  26075.70030093  .00000000  00000+0  00000-0 0  9996
2 10096  80.0000 288.0000 0000000   0.0000 288.0000 14.79785908    11
CTC1_L_00090025-02
1 10097U 23226WD  26075.70030093  .00000000  00000+0  00000-0 0  9993
2 10097  80.0000 288.0000 0000000   0.0000  18.0000 14.79785908    13
CTC1_L_00090025-03
1 10098U 26895FH  26075.70030093  .00000000  00000+0  00000-0 0  9999
2 10098  80.0000 288.0000 0000000   0.0000 108.0000 14.79785908    14
CTC1_L_00090025-04
1 10099U 25312YS  26075.70030093  .00000000  00000+0  00000-0 0  9993
2 10099  80.0000 288.0000 0000000   0.0000 198.0000 14.79785908    14
CTC1_L_00090026-01
1 10100U 24631LU  26075.70030093  .00000000  00000+0  00000-0 0  9999
2 10100  80.0000 300.0000 0000000   0.0000 300.0000 14.79785908    17
CTC1_L_00090026-02
1 10101U 25255ZI  26075.70030093  .00000000  00000+0  00000-0 0  9993
2 10101  80.0000 300.0000 0000000   0.0000  30.0000 14.79785908    18
CTC1_L_00090026-03
1 10102U 22993AT  26075.70030093  .00000000  00000+0  00000-0 0  9990
2 10102  80.0000 300.0000 0000000   0.0000 120.0000 14.79785908    19
CTC1_L_00090026-04
1 10103U 26826GC  26075.70030093  .00000000  00000+0  00000-0 0  9990
2 10103  80.0000 300.0000 0000000   0.0000 210.0000 14.79785908    10
CTC1_L_00090027-01
1 10104U 24151RT  26075.70030093  .00000000  00000+0  00000-0 0  9990
2 10104  80.0000 312.0000 0000000   0.0000 312.0000 14.79785908    17
CTC1_L_00090027-02
1 10105U 25909TS  26075.70030093  .00000000  00000+0  00000-0 0  9993
2 10105  80.0000 312.0000 0000000   0.0000  42.0000 14.79785908    18
CTC1_L_00090027-03
1 10106U 26810FM  26075.70030093  .00000000  00000+0  00000-0 0  9996
2 10106  80.0000 312.0000 0000000   0.0000 132.0000 14.79785908    19
CTC1_L_00090027-04
1 10107U 25480YC  26075.70030093  .00000000  00000+0  00000-0 0  9999
2 10107  80.0000 312.0000 0000000   0.0000 222.0000 14.79785908    10
CTC1_L_00090028-01
1 10108U 24550QG  26075.70030093  .00000000  00000+0  00000-0 0  9997
2 10108  80.0000 324.0000 0000000   0.0000 324.0000 14.79785908    17
CTC1_L_00090028-02
1 10109U 26853VH  26075.70030093  .00000000  00000+0  00000-0 0  9996
2 10109  80.0000 324.0000 0000000   0.0000  54.0000 14.79785908    18
CTC1_L_00090028-03
1 10110U 22040AV  26075.70030093  .00000000  00000+0  00000-0 0  9992
2 10110  80.0000 324.0000 0000000   0.0000 144.0000 14.79785908    10
CTC1_L_00090028-04
1 10111U 24389EV  26075.70030093  .00000000  00000+0  00000-0 0  9991
2 10111  80.0000 324.0000 0000000   0.0000 234.0000 14.79785908    11
CTC1_L_00090029-01
1 10112U 24158WW  26075.70030093  .00000000  00000+0  00000-0 0  9996
2 10112  80.0000 336.0000 0000000   0.0000 336.0000 14.79785908    18
CTC1_L_00090029-02
1 10113U 23262QR  26075.70030093  .00000000  00000+0  00000-0 0  9992
2 10113  80.0000 336.0000 0000000   0.0000  66.0000 14.79785908    19
CTC1_L_00090029-03
1 10114U 25256XB  26075.70030093  .00000000  00000+0  00000-0 0  9998
2 10114  80.0000 336.0000 0000000   0.0000 156.0000 14.79785908    10
CTC1_L_00090029-04
1 10115U 25038GF  26075.70030093  .00000000  00000+0  00000-0 0  9997
2 10115  80.0000 336.0000 0000000   0.0000 246.0000 14.79785908    11
CTC1_L_00090030-01
1 10116U 24516TH  26075.70030093  .00000000  00000+0  00000-0 0  9998
2 10116  80.0000 348.0000 0000000   0.0000 348.0000 14.79785908    18
CTC1_L_00090030-02
1 10117U 25417MM  26075.70030093  .00000000  00000+0  00000-0 0  9990
2 10117  80.0000 348.0000 0000000   0.0000  78.0000 14.79785908    19
CTC1_L_00090030-03
1 10118U 22342SG  26075.70030093  .00000000  00000+0  00000-0 0  9995
2 10118  80.0000 348.0000 0000000   0.0000 168.0000 14.79785908    10
CTC1_L_00090030-04
1 10119U 23212JD  26075.70030093  .00000000  00000+0  00000-0 0  9993
2 10119  80.0000 348.0000 0000000   0.0000 258.0000 14.79785908    11
